[{"OBJECT_NAME":"STARLINK-2574","OBJECT_ID":"2021-038AU","EPOCH":"2026-03-09T22:10:14.098656","MEAN_MOTION":15.30176927,"ECCENTRICITY":0.00012629,"INCLINATION":53.1604,"RA_OF_ASC_NODE":333.8477,"ARG_OF_PERICENTER":111.0392,"MEAN_ANOMALY":249.0744,"EPHEMERIS_TYPE":0,"CLASSIFICATION_TYPE":"U","NORAD_CAT_ID":48395,"ELEMENT_SET_NO":999,"REV_AT_EPOCH":26866,"BSTAR":0.00012701602,"MEAN_MOTION_DOT":3.402e-5,"MEAN_MOTION_DDOT":0},{"OBJECT_NAME":"EXO-0","OBJECT_ID":"2023-174DK","EPOCH":"2026-03-09T17:03:04.419648","MEAN_MOTION":15.32821991,"ECCENTRICITY":0.00098779,"INCLINATION":97.3864,"RA_OF_ASC_NODE":148.9039,"ARG_OF_PERICENTER":157.1125,"MEAN_ANOMALY":203.0559,"EPHEMERIS_TYPE":0,"CLASSIFICATION_TYPE":"U","NORAD_CAT_ID":59175,"ELEMENT_SET_NO":999,"REV_AT_EPOCH":12979,"BSTAR":0.00036716083,"MEAN_MOTION_DOT":0.00011582,"MEAN_MOTION_DDOT":0}]
